{"type": "FeatureCollection", "features": [ {"type": "Feature", "properties": {"norad_id": 40118, "name": "GAOFEN-2", "group": "resource", "lat": -37.775656353695766, "lon": -133.16040592550152, "alt_km": 637.3277686485135, "timestamp": "2025-12-19T22:41:52.036211+00:00", "meta": {"OBJECT_NAME": "GAOFEN-2", "OBJECT_ID": "2014-049A", "EPOCH": "2025-12-19T18:28:21.361152", "MEAN_MOTION": 14.80619384, "ECCENTRICITY": 0.000871, "INCLINATION": 98.0381, "RA_OF_ASC_NODE": 52.9508, "ARG_OF_PERICENTER": 93.2692, "MEAN_ANOMALY": 266.9517, "EPHEMERIS_TYPE": 0, "CLASSIFICATION_TYPE": "U", "NORAD_CAT_ID": 40118, "ELEMENT_SET_NO": 999, "REV_AT_EPOCH": 61268, "BSTAR": 2.7676e-05, "MEAN_MOTION_DOT": 1.59e-06, "MEAN_MOTION_DDOT": 0}, "tle": {"line1": "1 40118U 14049A   25353.76969168  .00000159  00000+0  27676-4 0  9998", "line2": "2 40118  98.0381  52.9508 0008710  93.2692 266.9517 14.80619384612684"}}, "geometry": {"type": "Point", "coordinates": [-133.16040592550152, -37.775656353695766]}}, {"type": "Feature", "properties": {"norad_id": 40143, "name": "YAOGAN-21", "group": "resource", "lat": -37.159553808839426, "lon": -148.53326204243663, "alt_km": 506.9776730532085, "timestamp": "2025-12-19T22:41:52.036221+00:00", "meta": {"OBJECT_NAME": "YAOGAN-21", "OBJECT_ID": "2014-053A", "EPOCH": "2025-12-19T18:35:39.805728", "MEAN_MOTION": 15.23743167, "ECCENTRICITY": 0.0009158, "INCLINATION": 97.175, "RA_OF_ASC_NODE": 36.7821, "ARG_OF_PERICENTER": 19.3226, "MEAN_ANOMALY": 340.8357, "EPHEMERIS_TYPE": 0, "CLASSIFICATION_TYPE": "U", "NORAD_CAT_ID": 40143, "ELEMENT_SET_NO": 999, "REV_AT_EPOCH": 62761, "BSTAR": 0.00011613, "MEAN_MOTION_DOT": 2.726e-05, "MEAN_MOTION_DDOT": 0}, "tle": {"line1": "1 40143U 14053A   25353.77476627  .00002726  00000+0  11613-3 0  9990", "line2": "2 40143  97.1750  36.7821 0009158  19.3226 340.8357 15.23743167627617"}}, "geometry": {"type": "Point", "coordinates": [-148.53326204243663, -37.159553808839426]}}, {"type": "Feature", "properties": {"norad_id": 40275, "name": "YAOGAN-22", "group": "resource", "lat": 58.99861759101967, "lon": 119.05080477733354, "alt_km": 1200.5140720677819, "timestamp": "2025-12-19T22:41:52.036231+00:00", "meta": {"OBJECT_NAME": "YAOGAN-22", "OBJECT_ID": "2014-063A", "EPOCH": "2025-12-19T15:05:19.788000", "MEAN_MOTION": 13.15522939, "ECCENTRICITY": 0.000601, "INCLINATION": 100.7426, "RA_OF_ASC_NODE": 137.1455, "ARG_OF_PERICENTER": 231.5131, "MEAN_ANOMALY": 128.5441, "EPHEMERIS_TYPE": 0, "CLASSIFICATION_TYPE": "U", "NORAD_CAT_ID": 40275, "ELEMENT_SET_NO": 999, "REV_AT_EPOCH": 53620, "BSTAR": -1.3452e-05, "MEAN_MOTION_DOT": -5.2e-07, "MEAN_MOTION_DDOT": 0}, "tle": {"line1": "1 40275U 14063A   25353.62870125 -.00000052  00000+0 -13452-4 0  9998", "line2": "2 40275 100.7426 137.1455 0006010 231.5131 128.5441 13.15522939536200"}}, "geometry": {"type": "Point", "coordinates": [119.05080477733354, 58.99861759101967]}}, {"type": "Feature", "properties": {"norad_id": 40298, "name": "ASNARO", "group": "resource", "lat": 21.563163353894772, "lon": -107.35305711964753, "alt_km": 504.6560155000525, "timestamp": "2025-12-19T22:41:52.036241+00:00", "meta": {"OBJECT_NAME": "ASNARO", "OBJECT_ID": "2014-070A", "EPOCH": "2025-12-19T17:15:49.152096", "MEAN_MOTION": 15.19633821, "ECCENTRICITY": 0.0005798, "INCLINATION": 97.3651, "RA_OF_ASC_NODE": 69.496, "ARG_OF_PERICENTER": 102.144, "MEAN_ANOMALY": 258.0445, "EPHEMERIS_TYPE": 0, "CLASSIFICATION_TYPE": "U", "NORAD_CAT_ID": 40298, "ELEMENT_SET_NO": 999, "REV_AT_EPOCH": 61675, "BSTAR": 0.00040504, "MEAN_MOTION_DOT": 8.572e-05, "MEAN_MOTION_DDOT": 0}, "tle": {"line1": "1 40298U 14070A   25353.71931889  .00008572  00000+0  40504-3 0  9996", "line2": "2 40298  97.3651  69.4960 0005798 102.1440 258.0445 15.19633821616753"}}, "geometry": {"type": "Point", "coordinates": [-107.35305711964753, 21.563163353894772]}}, {"type": "Feature", "properties": {"norad_id": 40310, "name": "YAOGAN-24", "group": "resource", "lat": 81.31647687368131, "lon": 55.838168709435735, "alt_km": 624.7062242587008, "timestamp": "2025-12-19T22:41:52.036251+00:00", "meta": {"OBJECT_NAME": "YAOGAN-24", "OBJECT_ID": "2014-072A", "EPOCH": "2025-12-19T19:03:07.975584", "MEAN_MOTION": 14.7619117, "ECCENTRICITY": 0.0015056, "INCLINATION": 98.1221, "RA_OF_ASC_NODE": 124.9247, "ARG_OF_PERICENTER": 116.7682, "MEAN_ANOMALY": 243.507, "EPHEMERIS_TYPE": 0, "CLASSIFICATION_TYPE": "U", "NORAD_CAT_ID": 40310, "ELEMENT_SET_NO": 999, "REV_AT_EPOCH": 59725, "BSTAR": 0.0001336, "MEAN_MOTION_DOT": 8.73e-06, "MEAN_MOTION_DDOT": 0}, "tle": {"line1": "1 40310U 14072A   25353.79384231  .00000873  00000+0  13360-3 0  9990", "line2": "2 40310  98.1221 124.9247 0015056 116.7682 243.5070 14.76191170597256"}}, "geometry": {"type": "Point", "coordinates": [55.838168709435735, 81.31647687368131]}}, {"type": "Feature", "properties": {"norad_id": 40336, "name": "CBERS 4", "group": "resource", "lat": -33.88190974905509, "lon": -133.93017921415375, "alt_km": 779.9537512572288, "timestamp": "2025-12-19T22:41:52.036261+00:00", "meta": {"OBJECT_NAME": "CBERS 4", "OBJECT_ID": "2014-079A", "EPOCH": "2025-12-19T18:21:27.219168", "MEAN_MOTION": 14.35520223, "ECCENTRICITY": 0.0001783, "INCLINATION": 98.3304, "RA_OF_ASC_NODE": 51.5417, "ARG_OF_PERICENTER": 103.976, "MEAN_ANOMALY": 256.1625, "EPHEMERIS_TYPE": 0, "CLASSIFICATION_TYPE": "U", "NORAD_CAT_ID": 40336, "ELEMENT_SET_NO": 999, "REV_AT_EPOCH": 57821, "BSTAR": 5.8199e-05, "MEAN_MOTION_DOT": 1.25e-06, "MEAN_MOTION_DDOT": 0}, "tle": {"line1": "1 40336U 14079A   25353.76489837  .00000125  00000+0  58199-4 0  9990", "line2": "2 40336  98.3304  51.5417 0001783 103.9760 256.1625 14.35520223578210"}}, "geometry": {"type": "Point", "coordinates": [-133.93017921415375, -33.88190974905509]}}, {"type": "Feature", "properties": {"norad_id": 40362, "name": "YAOGAN-26", "group": "resource", "lat": -20.84130194239857, "lon": -2.9307540260419493, "alt_km": 449.7956255492236, "timestamp": "2025-12-19T22:41:52.036271+00:00", "meta": {"OBJECT_NAME": "YAOGAN-26", "OBJECT_ID": "2014-088A", "EPOCH": "2025-12-19T18:06:32.152320", "MEAN_MOTION": 15.39527677, "ECCENTRICITY": 0.0005186, "INCLINATION": 97.0634, "RA_OF_ASC_NODE": 354.1792, "ARG_OF_PERICENTER": 9.3397, "MEAN_ANOMALY": 350.7945, "EPHEMERIS_TYPE": 0, "CLASSIFICATION_TYPE": "U", "NORAD_CAT_ID": 40362, "ELEMENT_SET_NO": 999, "REV_AT_EPOCH": 61002, "BSTAR": 0.00020107, "MEAN_MOTION_DOT": 7.823e-05, "MEAN_MOTION_DDOT": 0}, "tle": {"line1": "1 40362U 14088A   25353.75453880  .00007823  00000+0  20107-3 0  9996", "line2": "2 40362  97.0634 354.1792 0005186   9.3397 350.7945 15.39527677610022"}}, "geometry": {"type": "Point", "coordinates": [-2.9307540260419493, -20.84130194239857]}}, {"type": "Feature", "properties": {"norad_id": 40376, "name": "SMAP", "group": "resource", "lat": 56.875278059654775, "lon": -14.087299197788429, "alt_km": 676.1866158779885, "timestamp": "2025-12-19T22:41:52.036282+00:00", "meta": {"OBJECT_NAME": "SMAP", "OBJECT_ID": "2015-003A", "EPOCH": "2025-12-19T17:30:41.670144", "MEAN_MOTION": 14.63353256, "ECCENTRICITY": 0.0001224, "INCLINATION": 98.1288, "RA_OF_ASC_NODE": 358.3527, "ARG_OF_PERICENTER": 91.8071, "MEAN_ANOMALY": 268.3271, "EPHEMERIS_TYPE": 0, "CLASSIFICATION_TYPE": "U", "NORAD_CAT_ID": 40376, "ELEMENT_SET_NO": 999, "REV_AT_EPOCH": 58137, "BSTAR": 8.2639e-05, "MEAN_MOTION_DOT": 3.8e-06, "MEAN_MOTION_DDOT": 0}, "tle": {"line1": "1 40376U 15003A   25353.72964896  .00000380  00000+0  82639-4 0  9990", "line2": "2 40376  98.1288 358.3527 0001224  91.8071 268.3271 14.63353256581377"}}, "geometry": {"type": "Point", "coordinates": [-14.087299197788429, 56.875278059654775]}}, {"type": "Feature", "properties": {"norad_id": 40536, "name": "KOMPSAT-3A", "group": "resource", "lat": 39.87335928944011, "lon": -37.78033502930445, "alt_km": 429.49396516758407, "timestamp": "2025-12-19T22:41:52.036293+00:00", "meta": {"OBJECT_NAME": "KOMPSAT-3A", "OBJECT_ID": "2015-014A", "EPOCH": "2025-12-19T17:51:29.338848", "MEAN_MOTION": 15.44188829, "ECCENTRICITY": 0.0005412, "INCLINATION": 97.6789, "RA_OF_ASC_NODE": 328.4783, "ARG_OF_PERICENTER": 111.4198, "MEAN_ANOMALY": 248.7627, "EPHEMERIS_TYPE": 0, "CLASSIFICATION_TYPE": "U", "NORAD_CAT_ID": 40536, "ELEMENT_SET_NO": 999, "REV_AT_EPOCH": 59403, "BSTAR": 0.00030692, "MEAN_MOTION_DOT": 0.00013998, "MEAN_MOTION_DDOT": 0}, "tle": {"line1": "1 40536U 15014A   25353.74408957  .00013998  00000+0  30692-3 0  9993", "line2": "2 40536  97.6789 328.4783 0005412 111.4198 248.7627 15.44188829594035"}}, "geometry": {"type": "Point", "coordinates": [-37.78033502930445, 39.87335928944011]}}, {"type": "Feature", "properties": {"norad_id": 40697, "name": "SENTINEL-2A", "group": "resource", "lat": 16.15720588896276, "lon": -111.11780586627519, "alt_km": 789.4607087137947, "timestamp": "2025-12-19T22:41:52.036303+00:00", "meta": {"OBJECT_NAME": "SENTINEL-2A", "OBJECT_ID": "2015-028A", "EPOCH": "2025-12-19T18:34:45.607008", "MEAN_MOTION": 14.30807773, "ECCENTRICITY": 0.0001078, "INCLINATION": 98.5744, "RA_OF_ASC_NODE": 66.2077, "ARG_OF_PERICENTER": 87.9281, "MEAN_ANOMALY": 272.2025, "EPHEMERIS_TYPE": 0, "CLASSIFICATION_TYPE": "U", "NORAD_CAT_ID": 40697, "ELEMENT_SET_NO": 999, "REV_AT_EPOCH": 54807, "BSTAR": 4.8536e-05, "MEAN_MOTION_DOT": 8.4e-07, "MEAN_MOTION_DDOT": 0}, "tle": {"line1": "1 40697U 15028A   25353.77413897  .00000084  00000+0  48536-4 0  9997", "line2": "2 40697  98.5744  66.2077 0001078  87.9281 272.2025 14.30807773548078"}}, "geometry": {"type": "Point", "coordinates": [-111.11780586627519, 16.15720588896276]}}]}